      2.10          N: GNSS NAV DATA                        RINEX VERSION / TYPE
fic2rin                                 08/01/2020 00:17:38 PGM / RUN BY / DATE
                                                            END OF HEADER
 3 20  7 31 20  0  0.0-2.565155737102e-04-1.125499693444e-11 0.000000000000e+00
    5.600000000000e+01-6.471875000000e+01 4.186960117981e-09 2.925416997395e+00
   -3.457069396973e-06 3.106793621555e-03 1.140311360359e-05 5.153783092499e+03
    5.040000000000e+05-7.450580596924e-08 2.985463426707e+00-6.705522537231e-08
    9.667432849668e-01 1.605000000000e+02 8.072976301124e-01-7.660676240772e-09
    3.693010971588e-10 1.000000000000e+00 2.116000000000e+03 0.000000000000e+00
    2.400000000000e+00 0.000000000000e+00 1.862645149231e-09 5.600000000000e+01
    4.968000000000e+05 4.000000000000e+00
12 20  7 31 20  0  0.0 8.653337135911e-05-4.888534022029e-12 0.000000000000e+00
    1.200000000000e+01 1.037812500000e+02 3.694082444790e-09 2.589820313074e+00
    5.379319190979e-06 7.941036601551e-03 9.849667549133e-06 5.153656639099e+03
    5.040000000000e+05 9.685754776001e-08-8.627719269424e-02-5.029141902924e-08
    9.777940086795e-01 1.953437500000e+02 1.167103136313e+00-7.473882745787e-09
    2.107230631757e-11 1.000000000000e+00 2.116000000000e+03 0.000000000000e+00
    2.400000000000e+00 0.000000000000e+00-1.210719347000e-08 1.200000000000e+01
    4.968000000000e+05 4.000000000000e+00
 7 20  7 31 20  0  0.0-3.399141132832e-04-8.526512829121e-12 0.000000000000e+00
    1.120000000000e+02-1.218750000000e+00 4.648765068296e-09-2.994538786766e+00
   -2.104789018631e-07 1.415709930006e-02 8.208677172661e-06 5.153648445129e+03
    5.040000000000e+05 2.793967723846e-08-1.193130653561e+00-2.309679985046e-07
    9.524835919305e-01 2.145937500000e+02-2.374865143100e+00-7.766394930094e-09
   -5.968105738417e-10 1.000000000000e+00 2.116000000000e+03 0.000000000000e+00
    3.400000000000e+00 0.000000000000e+00-1.117587089539e-08 1.120000000000e+02
    4.968000000000e+05 4.000000000000e+00
 6 20  7 31 20  0  0.0-3.101732581854e-04-4.661160346586e-12 0.000000000000e+00
    7.700000000000e+01-1.302187500000e+02 4.218032840856e-09-2.007312979500e+00
   -6.604939699173e-06 1.764199696481e-03 4.138797521591e-06 5.153590492249e+03
    5.040000000000e+05-1.117587089539e-08 1.937193140601e+00 6.146728992462e-08
    9.803153670071e-01 3.116875000000e+02-1.079799002923e+00-8.037834808083e-09
   -1.703642392115e-10 1.000000000000e+00 2.116000000000e+03 0.000000000000e+00
    2.400000000000e+00 0.000000000000e+00 4.190951585770e-09 7.700000000000e+01
    4.968000000000e+05 4.000000000000e+00
 8 20  7 31 20  0  0.0-4.290696233511e-05-1.364242052659e-12 0.000000000000e+00
    1.200000000000e+02 6.421875000000e+01 4.485901141503e-09 2.099029823875e-02
    3.455206751823e-06 5.371368839405e-03 1.486390829086e-06 5.153701604843e+03
    5.040000000000e+05 6.705522537231e-08 8.743310146877e-01-1.061707735062e-07
    9.693703581435e-01 3.535312500000e+02-5.829395146849e-02-8.428922527028e-09
    2.775115594704e-10 1.000000000000e+00 2.116000000000e+03 0.000000000000e+00
    2.400000000000e+00 0.000000000000e+00 5.122274160385e-09 1.200000000000e+02
    4.968000000000e+05 4.000000000000e+00
 4 20  7 31 20  0  0.0-1.191473565996e-04-4.547473508865e-12 0.000000000000e+00
    2.090000000000e+02 1.200000000000e+01 4.842701717965e-09-9.986628232751e-01
    4.954636096954e-07 7.900024065748e-04 6.385147571564e-06 5.153640949249e+03
    5.040000000000e+05 2.421438694000e-08-2.218854365768e+00-9.313225746155e-09
    9.599326288871e-01 2.570312500000e+02-2.708993938345e+00-8.027834391525e-09
    1.478633019572e-10 1.000000000000e+00 2.116000000000e+03 0.000000000000e+00
    2.400000000000e+00 0.000000000000e+00-4.190951585770e-09 9.770000000000e+02
    4.968000000000e+05 4.000000000000e+00
10 20  7 31 20  0  0.0-4.151309840381e-04-1.045918907039e-11 0.000000000000e+00
    5.100000000000e+01-5.943750000000e+01 4.289107229961e-09 1.968725852648e+00
   -3.017485141754e-06 5.754252662882e-03 1.093931496143e-05 5.153673715591e+03
    5.040000000000e+05-1.620501279831e-07 2.982453860432e+00 5.401670932770e-08
    9.666767777851e-01 1.738750000000e+02-2.647593031220e+00-7.777466819854e-09
    3.225134339791e-10 1.000000000000e+00 2.116000000000e+03 0.000000000000e+00
    2.400000000000e+00 0.000000000000e+00 2.328306436539e-09 5.100000000000e+01
    4.968000000000e+05 4.000000000000e+00
 9 20  7 31 20  0  0.0-2.629300579429e-04-6.252776074689e-12 0.000000000000e+00
    7.000000000000e+01 1.571875000000e+01 5.040924260444e-09 2.721169296424e-01
    7.878988981247e-07 1.601520576514e-03 6.450340151787e-06 5.153675441742e+03
    5.040000000000e+05-2.235174179077e-08-2.267293344726e+00 9.313225746155e-09
    9.527192665701e-01 2.507500000000e+02 1.777384250503e+00-8.163554330520e-09
    2.346526313668e-10 1.000000000000e+00 2.116000000000e+03 0.000000000000e+00
    2.400000000000e+00 0.000000000000e+00 1.396983861923e-09 7.000000000000e+01
    4.968000000000e+05 4.000000000000e+00
25 20  7 31 20  0  0.0 2.978229895234e-05 4.547473508865e-12 0.000000000000e+00
    6.000000000000e+00 9.787500000000e+01 3.965522322779e-09 2.371648050192e+00
    5.047768354416e-06 9.085249505006e-03 1.019239425659e-05 5.153762823105e+03
    5.040000000000e+05 3.166496753693e-08-1.559812658858e-01-1.732259988785e-07
    9.650928427335e-01 1.827500000000e+02 9.377452730604e-01-7.643175511796e-09
   -2.607251459631e-11 1.000000000000e+00 2.116000000000e+03 0.000000000000e+00
    2.400000000000e+00 0.000000000000e+00 5.587935447693e-09 6.000000000000e+00
    4.968000000000e+05 4.000000000000e+00
13 20  7 31 20  0  0.0 3.167754039168e-05 3.410605131648e-12 0.000000000000e+00
    2.800000000000e+01 1.025000000000e+01 4.786627953696e-09-7.833711031451e-01
    4.377216100693e-07 4.294964252040e-03 5.774199962616e-06 5.153650827408e+03
    5.040000000000e+05-2.793967723846e-08-2.123371200762e+00 8.195638656616e-08
    9.676828499549e-01 2.692812500000e+02 1.050234966068e+00-8.069979004161e-09
    6.964575816824e-11 1.000000000000e+00 2.116000000000e+03 0.000000000000e+00
    2.400000000000e+00 0.000000000000e+00-1.117587089539e-08 2.800000000000e+01
    4.968000000000e+05 4.000000000000e+00
31 20  7 31 20  0  0.0-5.921581760049e-05-2.387423592154e-12 0.000000000000e+00
    5.000000000000e+01-4.593750000000e+00 4.597691512306e-09 2.966102975740e+00
   -3.613531589508e-07 9.572513168678e-03 8.137896656990e-06 5.153621711731e+03
    5.040000000000e+05-8.940696716309e-08-1.177300007408e+00 2.048909664154e-08
    9.569012870767e-01 2.230937500000e+02 1.419552930306e-01-7.845683947085e-09
   -6.028822553230e-10 1.000000000000e+00 2.116000000000e+03 0.000000000000e+00
    2.400000000000e+00 0.000000000000e+00-1.303851604462e-08 5.000000000000e+01
    4.968000000000e+05 4.000000000000e+00
30 20  7 31 20  0  0.0-2.732053399086e-04-7.503331289627e-12 0.000000000000e+00
    3.100000000000e+01-5.750000000000e+00 5.081283084408e-09-3.045792706840e+00
   -4.023313522339e-07 4.771126783453e-03 8.171424269676e-06 5.153608882904e+03
    5.040000000000e+05-2.980232238770e-08-1.171430730335e+00-6.332993507385e-08
    9.377911838184e-01 2.089062500000e+02-2.815704433460e+00-8.109623512656e-09
   -6.421696060846e-10 1.000000000000e+00 2.116000000000e+03 0.000000000000e+00
    2.400000000000e+00 0.000000000000e+00 3.725290298462e-09 3.100000000000e+01
    4.968000000000e+05 4.000000000000e+00
28 20  7 31 20  0  0.0 6.941477768123e-04-3.751665644813e-12 0.000000000000e+00
    1.700000000000e+01 1.156250000000e+02 3.874089942825e-09 6.391597563694e-01
    5.988404154778e-06 1.837960514240e-02 9.974464774132e-06 5.153672544479e+03
    5.040000000000e+05-1.732259988785e-07-6.374532697445e-02-1.974403858185e-07
    9.770364892172e-01 1.980000000000e+02-1.401165521745e+00-8.035334703943e-09
   -5.678807973718e-11 1.000000000000e+00 2.116000000000e+03 0.000000000000e+00
    2.400000000000e+00 0.000000000000e+00-1.117587089539e-08 1.700000000000e+01
    4.968000000000e+05 4.000000000000e+00
29 20  7 31 20  0  0.0-1.626354642212e-04-8.412825991400e-12 0.000000000000e+00
    7.400000000000e+01 5.603125000000e+01 4.098027842166e-09 9.643986515320e-02
    2.769753336906e-06 1.634209998883e-03 1.467764377594e-06 5.153771017075e+03
    5.040000000000e+05 1.490116119385e-08 9.598308229550e-01 2.048909664154e-08
    9.853887947014e-01 3.601562500000e+02 2.124062564143e+00-8.149268021152e-09
    2.621537768999e-10 1.000000000000e+00 2.116000000000e+03 0.000000000000e+00
    3.400000000000e+00 0.000000000000e+00-1.024454832077e-08 7.400000000000e+01
    4.968000000000e+05 4.000000000000e+00
26 20  7 31 20  0  0.0 2.532731741667e-04 6.707523425575e-12 0.000000000000e+00
    4.000000000000e+01 9.609375000000e+01 4.448399579412e-09 1.782935195139e+00
    5.032867193222e-06 4.814707906917e-03 9.642913937569e-06 5.153662504196e+03
    5.040000000000e+05-4.470348358154e-08-1.924554401759e-01 2.980232238770e-08
    9.461210656943e-01 1.861562500000e+02 2.092100083337e-01-7.953902740547e-09
   -1.785788670980e-10 1.000000000000e+00 2.116000000000e+03 0.000000000000e+00
    2.400000000000e+00 0.000000000000e+00 6.984919309616e-09 4.000000000000e+01
    4.968000000000e+05 4.000000000000e+00
16 20  7 31 20  0  0.0-1.898021437228e-04-4.888534022029e-12 0.000000000000e+00
    9.500000000000e+01 1.066562500000e+02 3.755156417338e-09 7.069655631534e-01
    5.714595317841e-06 1.144148153253e-02 9.085983037949e-06 5.153805885315e+03
    5.040000000000e+05-1.508742570877e-07-6.743330980517e-02 2.011656761169e-07
    9.780024306183e-01 2.145000000000e+02 6.340464685461e-01-7.729250525737e-09
   -9.036090675161e-11 1.000000000000e+00 2.116000000000e+03 0.000000000000e+00
    3.400000000000e+00 0.000000000000e+00-1.071020960808e-08 9.500000000000e+01
    4.968000000000e+05 4.000000000000e+00
